*******************************************************************************
Ephemeris / WWW_USER Mon Mar 24 07:06:54 2025 Pasadena, USA      / Horizons    
*******************************************************************************
Target body name: 358P/PANSTARRS                  {source: JPL#33}
Center body name: Earth (399)                     {source: DE441}
Center-site name: Mauna Kea
*******************************************************************************
Start time      : A.D. 2018-Nov-30 03:51:00.0000 UT      
Stop  time      : A.D. 2018-Nov-30 16:29:00.0000 UT      
Step-size       : 1 minutes
*******************************************************************************
Target pole/equ : undefined
Target radii    : undefined                                                    
Center geodetic : 204.5278, 19.8260847, 4.21024   {E-lon(deg),Lat(deg),Alt(km)}
Center cylindric: 204.5278, 6006.35451, 2151.0229 {E-lon(deg),Dxy(km),Dz(km)}
Center pole/equ : ITRF93                          {East-longitude positive}
Center radii    : 6378.137, 6378.137, 6356.752 km {Equator_a, b, pole_c}       
Target primary  : Sun
Vis. interferer : MOON (R_eq= 1737.400) km        {source: DE441}
Rel. light bend : Sun                             {source: DE441}
Rel. lght bnd GM: 1.3271E+11 km^3/s^2                                          
Small-body perts: Yes                             {source: SB441-N16}
Atmos refraction: NO (AIRLESS)
RA format       : HMS
Time format     : CAL 
Calendar mode   : Mixed Julian/Gregorian
RTS-only print  : NO       
EOP file        : eop.250321.p250617                                           
EOP coverage    : DATA-BASED 1962-JAN-20 TO 2025-MAR-21. PREDICTS-> 2025-JUN-16
Units conversion: 1 au= 149597870.700 km, c= 299792.458 km/s, 1 day= 86400.0 s 
Table cut-offs 1: Elevation (-90.0deg=NO ),Airmass (>38.000=NO), Daylight (YES)
Table cut-offs 2: Solar elongation (  0.0,180.0=NO ),Local Hour Angle( 0.0=NO )
Table cut-offs 3: RA/DEC angular rate (     0.0=NO )                           
*******************************************************************************
Initial IAU76/J2000 heliocentric ecliptic osculating elements (au, days, deg.):
  EPOCH=  2459793.5 ! 2022-Aug-02.0000000 (TDB)    RMSW= n.a.                  
   EC= .2388922136090974   QR= 2.394903345037887   TP= 2460259.6862889272      
   OM= 85.70246509974154   W= 299.7728624007243    IN= 11.06025031481611       
  Equivalent ICRF heliocentric cartesian coordinates (au, au/d):
   X= 3.243054425204740E-01  Y=-2.897679241187805E+00  Z=-1.376383147061824E+00
  VX= 8.746409534656921E-03 VY= 3.598394346577952E-03 VZ=-2.469697424538527E-04
Comet physical (GM= km^3/s^2; RAD= km):                                        
   GM= n.a.                RAD= n.a.                                           
   M1=  7.8      M2=  17.2     k1=  30.    k2=  5.      PHCOF=  .030           
Comet non-gravitational force model (AMRAT=m^2/kg;A1-A3=au/d^2;DT=days;R0=au): 
   AMRAT=  0.                                      DT=  0.                     
   A1= 0.                  A2= -2.303385920823E-10 A3= 0.                      
 Standard model:                                                               
   ALN=  .1112620426   NK=  4.6142   NM=  2.15     NN=  5.093    R0=  2.808    
*******************************************************************************
 Date__(UT)__HR:MN     R.A._________(ICRF)_________DEC
******************************************************
$$SOE
 2018-Nov-30 07:45     06 45 09.330475 +23 58 11.59814
 2018-Nov-30 07:46     06 45 09.304519 +23 58 11.81010
 2018-Nov-30 07:47     06 45 09.278557 +23 58 12.02205
 2018-Nov-30 07:48     06 45 09.252588 +23 58 12.23399
 2018-Nov-30 07:49     06 45 09.226612 +23 58 12.44591
 2018-Nov-30 07:50     06 45 09.200629 +23 58 12.65783
 2018-Nov-30 07:51     06 45 09.174639 +23 58 12.86974
 2018-Nov-30 07:52     06 45 09.148643 +23 58 13.08163
 2018-Nov-30 07:53     06 45 09.122640 +23 58 13.29352
 2018-Nov-30 07:54     06 45 09.096630 +23 58 13.50539
 2018-Nov-30 07:55     06 45 09.070613 +23 58 13.71725
 2018-Nov-30 07:56     06 45 09.044590 +23 58 13.92910
 2018-Nov-30 07:57     06 45 09.018559 +23 58 14.14093
 2018-Nov-30 07:58     06 45 08.992522 +23 58 14.35276
 2018-Nov-30 07:59     06 45 08.966479 +23 58 14.56457
 2018-Nov-30 08:00     06 45 08.940428 +23 58 14.77637
 2018-Nov-30 08:01     06 45 08.914371 +23 58 14.98816
 2018-Nov-30 08:02     06 45 08.888307 +23 58 15.19993
 2018-Nov-30 08:03     06 45 08.862237 +23 58 15.41169
 2018-Nov-30 08:04     06 45 08.836160 +23 58 15.62344
 2018-Nov-30 08:05     06 45 08.810076 +23 58 15.83517
 2018-Nov-30 08:06     06 45 08.783986 +23 58 16.04690
 2018-Nov-30 08:07     06 45 08.757888 +23 58 16.25861
 2018-Nov-30 08:08     06 45 08.731785 +23 58 16.47030
 2018-Nov-30 08:09     06 45 08.705674 +23 58 16.68198
 2018-Nov-30 08:10     06 45 08.679557 +23 58 16.89365
 2018-Nov-30 08:11     06 45 08.653434 +23 58 17.10530
 2018-Nov-30 08:12     06 45 08.627304 +23 58 17.31694
 2018-Nov-30 08:13     06 45 08.601167 +23 58 17.52857
 2018-Nov-30 08:14     06 45 08.575024 +23 58 17.74018
 2018-Nov-30 08:15     06 45 08.548874 +23 58 17.95177
 2018-Nov-30 08:16     06 45 08.522718 +23 58 18.16336
 2018-Nov-30 08:17     06 45 08.496555 +23 58 18.37492
 2018-Nov-30 08:18     06 45 08.470385 +23 58 18.58647
 2018-Nov-30 08:19     06 45 08.444210 +23 58 18.79801
 2018-Nov-30 08:20     06 45 08.418027 +23 58 19.00953
 2018-Nov-30 08:21     06 45 08.391838 +23 58 19.22104
 2018-Nov-30 08:22     06 45 08.365643 +23 58 19.43253
 2018-Nov-30 08:23     06 45 08.339442 +23 58 19.64400
 2018-Nov-30 08:24     06 45 08.313233 +23 58 19.85546
 2018-Nov-30 08:25     06 45 08.287019 +23 58 20.06690
 2018-Nov-30 08:26     06 45 08.260798 +23 58 20.27833
 2018-Nov-30 08:27     06 45 08.234570 +23 58 20.48974
 2018-Nov-30 08:28     06 45 08.208337 +23 58 20.70113
 2018-Nov-30 08:29     06 45 08.182097 +23 58 20.91251
 2018-Nov-30 08:30     06 45 08.155850 +23 58 21.12387
 2018-Nov-30 08:31     06 45 08.129597 +23 58 21.33522
 2018-Nov-30 08:32     06 45 08.103338 +23 58 21.54654
 2018-Nov-30 08:33     06 45 08.077073 +23 58 21.75785
 2018-Nov-30 08:34     06 45 08.050801 +23 58 21.96915
 2018-Nov-30 08:35     06 45 08.024523 +23 58 22.18042
 2018-Nov-30 08:36     06 45 07.998239 +23 58 22.39168
 2018-Nov-30 08:37     06 45 07.971948 +23 58 22.60292
 2018-Nov-30 08:38     06 45 07.945652 +23 58 22.81414
 2018-Nov-30 08:39     06 45 07.919349 +23 58 23.02535
 2018-Nov-30 08:40     06 45 07.893039 +23 58 23.23653
 2018-Nov-30 08:41     06 45 07.866724 +23 58 23.44770
 2018-Nov-30 08:42     06 45 07.840402 +23 58 23.65885
 2018-Nov-30 08:43     06 45 07.814075 +23 58 23.86999
 2018-Nov-30 08:44     06 45 07.787741 +23 58 24.08110
 2018-Nov-30 08:45     06 45 07.761401 +23 58 24.29219
 2018-Nov-30 08:46     06 45 07.735055 +23 58 24.50327
 2018-Nov-30 08:47     06 45 07.708703 +23 58 24.71433
 2018-Nov-30 08:48     06 45 07.682344 +23 58 24.92537
 2018-Nov-30 08:49     06 45 07.655980 +23 58 25.13639
 2018-Nov-30 08:50     06 45 07.629609 +23 58 25.34738
 2018-Nov-30 08:51     06 45 07.603233 +23 58 25.55837
 2018-Nov-30 08:52     06 45 07.576850 +23 58 25.76933
 2018-Nov-30 08:53     06 45 07.550462 +23 58 25.98027
 2018-Nov-30 08:54     06 45 07.524068 +23 58 26.19119
 2018-Nov-30 08:55     06 45 07.497667 +23 58 26.40209
 2018-Nov-30 08:56     06 45 07.471261 +23 58 26.61297
 2018-Nov-30 08:57     06 45 07.444848 +23 58 26.82383
 2018-Nov-30 08:58     06 45 07.418430 +23 58 27.03467
 2018-Nov-30 08:59     06 45 07.392006 +23 58 27.24549
 2018-Nov-30 09:00     06 45 07.365576 +23 58 27.45629
 2018-Nov-30 09:01     06 45 07.339140 +23 58 27.66707
 2018-Nov-30 09:02     06 45 07.312698 +23 58 27.87783
 2018-Nov-30 09:03     06 45 07.286250 +23 58 28.08857
 2018-Nov-30 09:04     06 45 07.259797 +23 58 28.29928
 2018-Nov-30 09:05     06 45 07.233338 +23 58 28.50998
 2018-Nov-30 09:06     06 45 07.206872 +23 58 28.72065
 2018-Nov-30 09:07     06 45 07.180402 +23 58 28.93130
 2018-Nov-30 09:08     06 45 07.153925 +23 58 29.14193
 2018-Nov-30 09:09     06 45 07.127443 +23 58 29.35254
 2018-Nov-30 09:10     06 45 07.100955 +23 58 29.56313
 2018-Nov-30 09:11     06 45 07.074461 +23 58 29.77370
 2018-Nov-30 09:12     06 45 07.047962 +23 58 29.98424
 2018-Nov-30 09:13     06 45 07.021456 +23 58 30.19476
 2018-Nov-30 09:14     06 45 06.994946 +23 58 30.40526
 2018-Nov-30 09:15     06 45 06.968429 +23 58 30.61574
 2018-Nov-30 09:16     06 45 06.941907 +23 58 30.82619
 2018-Nov-30 09:17     06 45 06.915380 +23 58 31.03662
 2018-Nov-30 09:18     06 45 06.888847 +23 58 31.24703
 2018-Nov-30 09:19     06 45 06.862308 +23 58 31.45741
 2018-Nov-30 09:20     06 45 06.835764 +23 58 31.66778
 2018-Nov-30 09:21     06 45 06.809214 +23 58 31.87812
 2018-Nov-30 09:22     06 45 06.782659 +23 58 32.08843
 2018-Nov-30 09:23     06 45 06.756098 +23 58 32.29873
 2018-Nov-30 09:24     06 45 06.729532 +23 58 32.50900
 2018-Nov-30 09:25     06 45 06.702960 +23 58 32.71924
 2018-Nov-30 09:26     06 45 06.676383 +23 58 32.92946
 2018-Nov-30 09:27     06 45 06.649801 +23 58 33.13966
 2018-Nov-30 09:28     06 45 06.623213 +23 58 33.34984
 2018-Nov-30 09:29     06 45 06.596620 +23 58 33.55999
 2018-Nov-30 09:30     06 45 06.570022 +23 58 33.77011
 2018-Nov-30 09:31     06 45 06.543418 +23 58 33.98022
 2018-Nov-30 09:32     06 45 06.516809 +23 58 34.19029
 2018-Nov-30 09:33     06 45 06.490194 +23 58 34.40035
 2018-Nov-30 09:34     06 45 06.463574 +23 58 34.61038
 2018-Nov-30 09:35     06 45 06.436950 +23 58 34.82038
 2018-Nov-30 09:36     06 45 06.410319 +23 58 35.03036
 2018-Nov-30 09:37     06 45 06.383684 +23 58 35.24031
 2018-Nov-30 09:38     06 45 06.357044 +23 58 35.45024
 2018-Nov-30 09:39     06 45 06.330398 +23 58 35.66015
 2018-Nov-30 09:40     06 45 06.303747 +23 58 35.87003
 2018-Nov-30 09:41     06 45 06.277091 +23 58 36.07988
